SL-8 R/B                
1 19257U 88053B   26094.24923244  .00000335  00000+0  11713-3 0  9995
2 19257  74.0467  65.3478 0021363 241.1605 220.1097 14.38933793980278
COSMOS 1975             
1 19573U 88093A   26094.06430815  .00011657  00000+0  41870-3 0  9993
2 19573  82.5159  92.1991 0013375  83.8533 276.4229 15.28444338 23286
SL-14 R/B               
1 19574U 88093B   26094.26545392  .00000819  00000+0  91389-4 0  9992
2 19574  82.5345  18.0400 0019591 316.9311 156.1216 14.85689198  4811
SL-16 R/B               
1 19650U 88102B   26094.26282083  .00000268  00000+0  15942-3 0  9991
2 19650  70.9971  97.6869 0015387 324.2035  35.8056 14.16155280930512
INTERCOSMOS 24          
1 20261U 89080A   26094.22107460  .00000604  00000+0  17784-3 0  9998
2 20261  82.6016  87.7731 1187004 233.5104 115.0865 12.59590610670016
SL-14 R/B               
1 20262U 89080C   26094.24143242  .00000539  00000+0  15303-3 0  9991
2 20262  82.5946 156.7903 1230911 126.3748 245.7383 12.50518671663347
DELTA 1 R/B             
1 20323U 89089B   26094.14164578  .00000580  00000+0  15181-3 0  9992
2 20323  97.0684 297.5281 0070169  43.0970 317.5693 14.50686065899423
ARIANE 40 R/B           
1 20443U 90005H   26094.17763929  .00000451  00000+0  15680-3 0  9994
2 20443  98.3030 154.0729 0011242 125.1090 235.1155 14.39888769896473
DELTA 2 R/B(1)          
1 20453U 90008B   26094.20428515  .00105528  00000+0  10992-2 0  9992
2 20453  35.6043   6.9815 0076251 138.8915 221.7600 15.59608478930117
COSMOS 2058             
1 20465U 90010A   26094.26907904  .00007885  00000+0  46271-3 0  9995
2 20465  82.4727  22.2249 0008008 239.4213 120.6228 15.11584207946105
SL-14 R/B               
1 20466U 90010B   26093.91175734  .00000852  00000+0  10026-3 0  9991
2 20466  82.5006 243.6908 0018984 213.2555 146.7469 14.83595821932227
SL-14 R/B               
1 20511U 90018B   26094.29131273  .00000711  00000+0  86165-4 0  9994
2 20511  82.5242 199.1663 0016430  12.9130 347.2501 14.82172383926377
HST                     
1 20580U 90037B   26093.66929401  .00012406  00000+0  40809-3 0  9997
2 20580  28.4724 229.5454 0002132  51.9469 308.1319 15.29899616777144
SL-16 R/B               
1 20625U 90046B   26094.14622494  .00000044  00000+0  47557-4 0  9996
2 20625  70.9987 244.4455 0016550 266.6066  93.3163 14.15019283851995
COSMOS 2084             
1 20663U 90055A   26094.15748957  .00005283  00000+0  37541-3 0  9993
2 20663  62.7896 248.7034 0012991 198.8360 161.2261 15.05811854940158
SL-6 R/B(2)             
1 20666U 90055D   26094.17511627  .00003367  00000+0  25662-3 0  9992
2 20666  62.7828 167.1758 0028975 352.7118   7.3556 15.03726066942027
SL-8 R/B                
1 20775U 90078B   26094.30501172  .00019039  00000+0  56410-3 0  9995
2 20775  82.9045 228.2567 0357478 287.5485  68.6979 14.89834713813113
